ORBCOMM FM20 [+]        
1 25416U 98046D   24086.41093871  .00003295  00000+0  11948-2 0  9991
2 25416  44.9927 138.1792 0002003 249.5346 110.5286 14.35022089339893
ORBCOMM FM16 [-]        
1 25417U 98046E   24086.60796487  .00003511  00000+0  12467-2 0  9994
2 25417  44.9927 133.3447 0005307 227.4493 132.5906 14.35930909339854
ORBCOMM FM15 [-]        
1 25418U 98046F   24086.41694365  .00004167  00000+0  14781-2 0  9995
2 25418  44.9959 138.2022 0004952 228.7102 131.3319 14.35668982339831
ORBCOMM FM14 [-]        
1 25419U 98046G   24086.54687174  .00003254  00000+0  11617-2 0  9991
2 25419  44.9945 136.7616 0003625 228.9432 289.8603 14.35816662339805
ORBCOMM FM13 [+]        
1 25420U 98046H   24086.47042072  .00003846  00000+0  13827-2 0  9999
2 25420  44.9959 141.7493 0005560 209.4217 150.6318 14.35142111338860
ORBCOMM FM21 [-]        
1 25475U 98053A   24086.48907109  .00003130  00000+0  11356-2 0  9990
2 25475  45.0068 225.9199 0001698 187.2781 172.8042 14.35101484332882
ORBCOMM FM22 [-]        
1 25476U 98053B   24086.48263292  .00003761  00000+0  13412-2 0  9994
2 25476  45.0062 223.4134 0003013 161.6683 198.4274 14.35590015332871
ORBCOMM FM23 [-]        
1 25477U 98053C   24086.51850743  .00003337  00000+0  12066-2 0  9995
2 25477  45.0071 228.2209 0002298 165.3490 194.7424 14.35134808333038
